[{"OBJECT_NAME":"STARLINK-3452","OBJECT_ID":"2022-016AG","EPOCH":"2026-03-09T21:18:14.286240","MEAN_MOTION":15.08837099,"ECCENTRICITY":0.00014157,"INCLINATION":53.2173,"RA_OF_ASC_NODE":318.2629,"ARG_OF_PERICENTER":86.1361,"MEAN_ANOMALY":273.9793,"EPHEMERIS_TYPE":0,"CLASSIFICATION_TYPE":"U","NORAD_CAT_ID":51744,"ELEMENT_SET_NO":999,"REV_AT_EPOCH":22359,"BSTAR":0.00028966342,"MEAN_MOTION_DOT":4.325e-5,"MEAN_MOTION_DDOT":0},{"OBJECT_NAME":"CZ-4B DEB","OBJECT_ID":"2004-035J","EPOCH":"2026-03-07T20:16:16.859712","MEAN_MOTION":15.09572175,"ECCENTRICITY":0.00105031,"INCLINATION":97.5432,"RA_OF_ASC_NODE":82.067,"ARG_OF_PERICENTER":356.2804,"MEAN_ANOMALY":3.8346,"EPHEMERIS_TYPE":0,"CLASSIFICATION_TYPE":"U","NORAD_CAT_ID":29042,"ELEMENT_SET_NO":999,"REV_AT_EPOCH":69625,"BSTAR":0.00031812935,"MEAN_MOTION_DOT":5.052e-5,"MEAN_MOTION_DDOT":0}]
